[{"OBJECT_NAME":"SKY MUSTER 1 (NBN1A)","OBJECT_ID":"2015-054A","EPOCH":"2026-03-07T10:45:38.812896","MEAN_MOTION":1.00272918,"ECCENTRICITY":0.00017546,"INCLINATION":0.0162,"RA_OF_ASC_NODE":201.4594,"ARG_OF_PERICENTER":148.4292,"MEAN_ANOMALY":116.9042,"EPHEMERIS_TYPE":0,"CLASSIFICATION_TYPE":"U","NORAD_CAT_ID":40940,"ELEMENT_SET_NO":999,"REV_AT_EPOCH":3824,"BSTAR":0,"MEAN_MOTION_DOT":-2.8e-6,"MEAN_MOTION_DDOT":0},{"OBJECT_NAME":"ARSAT 2","OBJECT_ID":"2015-054B","EPOCH":"2026-03-07T06:41:17.050848","MEAN_MOTION":1.00272415,"ECCENTRICITY":0.0002037,"INCLINATION":0.0182,"RA_OF_ASC_NODE":75.9391,"ARG_OF_PERICENTER":263.8619,"MEAN_ANOMALY":204.4965,"EPHEMERIS_TYPE":0,"CLASSIFICATION_TYPE":"U","NORAD_CAT_ID":40941,"ELEMENT_SET_NO":999,"REV_AT_EPOCH":3828,"BSTAR":0,"MEAN_MOTION_DOT":-2.27e-6,"MEAN_MOTION_DDOT":0},{"OBJECT_NAME":"MORELOS 3","OBJECT_ID":"2015-056A","EPOCH":"2026-03-07T11:02:38.772672","MEAN_MOTION":1.00272239,"ECCENTRICITY":0.00029989,"INCLINATION":3.1109,"RA_OF_ASC_NODE":12.1888,"ARG_OF_PERICENTER":357.9315,"MEAN_ANOMALY":207.5937,"EPHEMERIS_TYPE":0,"CLASSIFICATION_TYPE":"U","NORAD_CAT_ID":40946,"ELEMENT_SET_NO":999,"REV_AT_EPOCH":3826,"BSTAR":0,"MEAN_MOTION_DOT":-4.4e-7,"MEAN_MOTION_DDOT":0},{"OBJECT_NAME":"APSTAR-9","OBJECT_ID":"2015-059A","EPOCH":"2026-03-07T10:45:38.812896","MEAN_MOTION":1.00270539,"ECCENTRICITY":0.0001627,"INCLINATION":0.0416,"RA_OF_ASC_NODE":350.3568,"ARG_OF_PERICENTER":268.6338,"MEAN_ANOMALY":209.5708,"EPHEMERIS_TYPE":0,"CLASSIFICATION_TYPE":"U","NORAD_CAT_ID":40982,"ELEMENT_SET_NO":999,"REV_AT_EPOCH":3810,"BSTAR":0,"MEAN_MOTION_DOT":-2.68e-6,"MEAN_MOTION_DDOT":0},{"OBJECT_NAME":"TURKSAT 4B","OBJECT_ID":"2015-060A","EPOCH":"2026-03-07T07:58:38.502912","MEAN_MOTION":1.00271591,"ECCENTRICITY":0.00022173,"INCLINATION":0.0218,"RA_OF_ASC_NODE":142.719,"ARG_OF_PERICENTER":210.0764,"MEAN_ANOMALY":341.887,"EPHEMERIS_TYPE":0,"CLASSIFICATION_TYPE":"U","NORAD_CAT_ID":40984,"ELEMENT_SET_NO":999,"REV_AT_EPOCH":3807,"BSTAR":0,"MEAN_MOTION_DOT":0,"MEAN_MOTION_DDOT":0},{"OBJECT_NAME":"FENGYUN 2E DEB","OBJECT_ID":"2008-066D","EPOCH":"2026-02-27T15:01:27.017760","MEAN_MOTION":1.00280833,"ECCENTRICITY":0.0178156,"INCLINATION":9.9514,"RA_OF_ASC_NODE":45.6569,"ARG_OF_PERICENTER":15.6248,"MEAN_ANOMALY":344.9936,"EPHEMERIS_TYPE":0,"CLASSIFICATION_TYPE":"U","NORAD_CAT_ID":40987,"ELEMENT_SET_NO":999,"REV_AT_EPOCH":6136,"BSTAR":0,"MEAN_MOTION_DOT":5.5e-7,"MEAN_MOTION_DDOT":0},{"OBJECT_NAME":"MSG 4 DEB [COOLER COVER]","OBJECT_ID":"2015-034E","EPOCH":"2026-03-06T20:34:32.055744","MEAN_MOTION":1.01538786,"ECCENTRICITY":0.00365831,"INCLINATION":6.8532,"RA_OF_ASC_NODE":80.5522,"ARG_OF_PERICENTER":293.3422,"MEAN_ANOMALY":50.7987,"EPHEMERIS_TYPE":0,"CLASSIFICATION_TYPE":"U","NORAD_CAT_ID":40989,"ELEMENT_SET_NO":999,"REV_AT_EPOCH":3929,"BSTAR":0,"MEAN_MOTION_DOT":-1.35e-6,"MEAN_MOTION_DDOT":0},{"OBJECT_NAME":"ZHONGXING-2C","OBJECT_ID":"2015-063A","EPOCH":"2026-03-07T07:33:57.002976","MEAN_MOTION":1.0027254,"ECCENTRICITY":0.00068874,"INCLINATION":0.0198,"RA_OF_ASC_NODE":164.0481,"ARG_OF_PERICENTER":60.461,"MEAN_ANOMALY":157.4552,"EPHEMERIS_TYPE":0,"CLASSIFICATION_TYPE":"U","NORAD_CAT_ID":41021,"ELEMENT_SET_NO":999,"REV_AT_EPOCH":3795,"BSTAR":0,"MEAN_MOTION_DOT":-3.26e-6,"MEAN_MOTION_DDOT":0},{"OBJECT_NAME":"GSAT-15","OBJECT_ID":"2015-065A","EPOCH":"2026-03-07T09:35:38.772384","MEAN_MOTION":1.00272198,"ECCENTRICITY":0.00012092,"INCLINATION":0.0823,"RA_OF_ASC_NODE":269.5034,"ARG_OF_PERICENTER":111.2106,"MEAN_ANOMALY":21.7781,"EPHEMERIS_TYPE":0,"CLASSIFICATION_TYPE":"U","NORAD_CAT_ID":41028,"ELEMENT_SET_NO":999,"REV_AT_EPOCH":3777,"BSTAR":0,"MEAN_MOTION_DOT":-2.59e-6,"MEAN_MOTION_DDOT":0},{"OBJECT_NAME":"BADR-7 (ARABSAT-6B)","OBJECT_ID":"2015-065B","EPOCH":"2026-03-07T07:11:44.132640","MEAN_MOTION":1.00273286,"ECCENTRICITY":0.00030488,"INCLINATION":0.0209,"RA_OF_ASC_NODE":183.947,"ARG_OF_PERICENTER":82.48,"MEAN_ANOMALY":32.4897,"EPHEMERIS_TYPE":0,"CLASSIFICATION_TYPE":"U","NORAD_CAT_ID":41029,"ELEMENT_SET_NO":999,"REV_AT_EPOCH":3774,"BSTAR":0,"MEAN_MOTION_DOT":1.43e-6,"MEAN_MOTION_DDOT":0},{"OBJECT_NAME":"COSMOS 2510","OBJECT_ID":"2015-066A","EPOCH":"2026-03-02T11:00:01.171296","MEAN_MOTION":2.00932732,"ECCENTRICITY":0.7211194,"INCLINATION":63.4496,"RA_OF_ASC_NODE":0.9503,"ARG_OF_PERICENTER":274.5576,"MEAN_ANOMALY":13.9547,"EPHEMERIS_TYPE":0,"CLASSIFICATION_TYPE":"U","NORAD_CAT_ID":41032,"ELEMENT_SET_NO":999,"REV_AT_EPOCH":7532,"BSTAR":0,"MEAN_MOTION_DOT":1.269e-5,"MEAN_MOTION_DDOT":0},{"OBJECT_NAME":"FREGAT R/B","OBJECT_ID":"2015-066B","EPOCH":"2026-03-02T00:05:26.399328","MEAN_MOTION":2.01879994,"ECCENTRICITY":0.74456104,"INCLINATION":62.8972,"RA_OF_ASC_NODE":328.0708,"ARG_OF_PERICENTER":266.6191,"MEAN_ANOMALY":14.5744,"EPHEMERIS_TYPE":0,"CLASSIFICATION_TYPE":"U","NORAD_CAT_ID":41033,"ELEMENT_SET_NO":999,"REV_AT_EPOCH":7575,"BSTAR":0.00019417066,"MEAN_MOTION_DOT":8.66e-6,"MEAN_MOTION_DDOT":0},{"OBJECT_NAME":"LAOSAT 1","OBJECT_ID":"2015-067A","EPOCH":"2026-03-07T09:48:38.712096","MEAN_MOTION":1.00272033,"ECCENTRICITY":0.00017362,"INCLINATION":0.0138,"RA_OF_ASC_NODE":338.1343,"ARG_OF_PERICENTER":336.5822,"MEAN_ANOMALY":126.0689,"EPHEMERIS_TYPE":0,"CLASSIFICATION_TYPE":"U","NORAD_CAT_ID":41034,"ELEMENT_SET_NO":999,"REV_AT_EPOCH":3783,"BSTAR":0,"MEAN_MOTION_DOT":-3.45e-6,"MEAN_MOTION_DDOT":0},{"OBJECT_NAME":"TELSTAR 12V","OBJECT_ID":"2015-068A","EPOCH":"2026-03-07T10:18:38.761056","MEAN_MOTION":1.00272168,"ECCENTRICITY":0.00026138,"INCLINATION":0.0182,"RA_OF_ASC_NODE":191.6161,"ARG_OF_PERICENTER":156.0136,"MEAN_ANOMALY":317.1676,"EPHEMERIS_TYPE":0,"CLASSIFICATION_TYPE":"U","NORAD_CAT_ID":41036,"ELEMENT_SET_NO":999,"REV_AT_EPOCH":3760,"BSTAR":0,"MEAN_MOTION_DOT":-1.2e-6,"MEAN_MOTION_DDOT":0},{"OBJECT_NAME":"H-2A R/B","OBJECT_ID":"2015-068B","EPOCH":"2026-03-06T09:35:10.993056","MEAN_MOTION":2.12566499,"ECCENTRICITY":0.64454238,"INCLINATION":19.3466,"RA_OF_ASC_NODE":95.8246,"ARG_OF_PERICENTER":244.5918,"MEAN_ANOMALY":37.4505,"EPHEMERIS_TYPE":0,"CLASSIFICATION_TYPE":"U","NORAD_CAT_ID":41037,"ELEMENT_SET_NO":999,"REV_AT_EPOCH":7986,"BSTAR":0,"MEAN_MOTION_DOT":-1.7e-6,"MEAN_MOTION_DDOT":0},{"OBJECT_NAME":"ELEKTRO-L 2","OBJECT_ID":"2015-074A","EPOCH":"2026-03-07T07:00:15.232608","MEAN_MOTION":1.00271084,"ECCENTRICITY":0.000324,"INCLINATION":6.4383,"RA_OF_ASC_NODE":71.7777,"ARG_OF_PERICENTER":243.1619,"MEAN_ANOMALY":300.6093,"EPHEMERIS_TYPE":0,"CLASSIFICATION_TYPE":"U","NORAD_CAT_ID":41105,"ELEMENT_SET_NO":999,"REV_AT_EPOCH":3748,"BSTAR":0,"MEAN_MOTION_DOT":-1.18e-6,"MEAN_MOTION_DDOT":0},{"OBJECT_NAME":"FREGAT R/B","OBJECT_ID":"2015-074B","EPOCH":"2026-03-07T11:20:07.892448","MEAN_MOTION":1.0289559,"ECCENTRICITY":0.01985486,"INCLINATION":7.8867,"RA_OF_ASC_NODE":63.018,"ARG_OF_PERICENTER":355.7725,"MEAN_ANOMALY":4.1673,"EPHEMERIS_TYPE":0,"CLASSIFICATION_TYPE":"U","NORAD_CAT_ID":41106,"ELEMENT_SET_NO":999,"REV_AT_EPOCH":3846,"BSTAR":0,"MEAN_MOTION_DOT":-3.21e-6,"MEAN_MOTION_DDOT":0}]
