SKY MUSTER 1 (NBN1A)    
1 40940U 15054A   26066.44836589 -.00000280  00000+0  00000+0 0  9998
2 40940   0.0162 201.4594 0001754 148.4292 116.9042  1.00272918 38240
ARSAT 2                 
1 40941U 15054B   26066.27866957 -.00000227  00000+0  00000+0 0  9993
2 40941   0.0182  75.9391 0002037 263.8619 204.4965  1.00272415 38285
MORELOS 3               
1 40946U 15056A   26066.46017098 -.00000044  00000+0  00000+0 0  9992
2 40946   3.1109  12.1888 0002998 357.9315 207.5937  1.00272239 38266
APSTAR-9                
1 40982U 15059A   26066.44836589 -.00000268  00000+0  00000+0 0  9995
2 40982   0.0416 350.3568 0001627 268.6338 209.5708  1.00270539 38108
TURKSAT 4B              
1 40984U 15060A   26066.33239008  .00000000  00000+0  00000+0 0  9993
2 40984   0.0218 142.7190 0002217 210.0764 341.8870  1.00271591 38079
FENGYUN 2E DEB          
1 40987U 08066D   26058.62600715  .00000055  00000+0  00000+0 0  9994
2 40987   9.9514  45.6569 0178156  15.6248 344.9936  1.00280833 61366
MSG 4 DEB [COOLER COVER]
1 40989U 15034E   26065.85731546 -.00000135  00000+0  00000+0 0  9999
2 40989   6.8532  80.5522 0036583 293.3422  50.7987  1.01538786 39296
ZHONGXING-2C            
1 41021U 15063A   26066.31524309 -.00000326  00000+0  00000+0 0  9990
2 41021   0.0198 164.0481 0006887  60.4610 157.4552  1.00272540 37952
GSAT-15                 
1 41028U 15065A   26066.39975431 -.00000259  00000+0  00000+0 0  9998
2 41028   0.0823 269.5034 0001209 111.2106  21.7781  1.00272198 37773
BADR-7 (ARABSAT-6B)     
1 41029U 15065B   26066.29981635  .00000143  00000+0  00000+0 0  9992
2 41029   0.0209 183.9470 0003048  82.4800  32.4897  1.00273286 37741
COSMOS 2510             
1 41032U 15066A   26061.45834689  .00001269  00000+0  00000+0 0  9996
2 41032  63.4496   0.9503 7211194 274.5576  13.9547  2.00932732 75326
FREGAT R/B              
1 41033U 15066B   26061.00377777  .00000866  00000+0  19417-3 0  9996
2 41033  62.8972 328.0708 7445610 266.6191  14.5744  2.01879994 75751
LAOSAT 1                
1 41034U 15067A   26066.40878139 -.00000345  00000+0  00000+0 0  9992
2 41034   0.0138 338.1343 0001736 336.5822 126.0689  1.00272033 37838
TELSTAR 12V             
1 41036U 15068A   26066.42961529 -.00000120  00000+0  00000+0 0  9994
2 41036   0.0182 191.6161 0002613 156.0136 317.1676  1.00272168 37600
H-2A R/B                
1 41037U 15068B   26065.39943279 -.00000170  00000+0  00000+0 0  9997
2 41037  19.3466  95.8246 6445423 244.5918  37.4505  2.12566499 79869
ELEKTRO-L 2             
1 41105U 15074A   26066.29184297 -.00000118  00000+0  00000+0 0  9999
2 41105   6.4383  71.7777 0003240 243.1619 300.6093  1.00271084 37484
FREGAT R/B              
1 41106U 15074B   26066.47231357 -.00000321  00000+0  00000+0 0  9996
2 41106   7.8867  63.0180 0198548 355.7725   4.1673  1.02895590 38468
